0 FENGYUN 1C DEB
1 37415U 99025EGH 13285.57636219 -.00000001  00000-0  46285-4 0   524
2 37415 098.9521 054.9120 0293347 351.9640 007.6949 13.49656916309471
0 FENGYUN 1C DEB
1 37415U 99025EGH 13289.20870774  .00000001  00000-0  48756-4 0   539
2 37415 098.9510 058.1768 0292985 342.7593 016.3773 13.49657271309966
0 FENGYUN 1C DEB
1 37415U 99025EGH 13289.57935527  .00000023  00000-0  75961-4 0   540
2 37415 098.9519 058.5147 0293448 341.8846 017.2171 13.49658111310010
0 FENGYUN 1C DEB
1 37415U 99025EGH 13295.58385141  .00000017  00000-0  69037-4 0   550
2 37415 098.9511 063.9151 0293740 326.5497 031.7309 13.49658632310825
